AMC-3                   
1 24936U 97050A   26059.43447481 -.00000277  00000+0  00000+0 0  9997
2 24936   7.8796  65.3191 0003411 278.3747 258.9495  1.00270672 51345
NSS-11                  
1 26554U 00059A   26059.47356090  .00000007  00000+0  00000+0 0  9997
2 26554   1.8455  82.7212 0003162 256.3808 165.6508  1.00272384 40207
AMC-6                   
1 26580U 00067A   26059.51410363  .00000071  00000+0  00000+0 0  9995
2 26580   0.0533 303.6575 0003214  27.0317 237.6441  1.00270224 92807
AMC-11                  
1 28252U 04017A   26059.50438981 -.00000067  00000+0  00000+0 0  9993
2 28252   0.0307  77.4121 0003225 261.5613 249.8011  1.00271347 79779
AMC-15                  
1 28446U 04041A   26059.50229981 -.00000106  00000+0  00000+0 0  9997
2 28446   0.0625 289.3204 0002425  50.3301 254.4233  1.00272378 78213
NSS-10                  
1 28526U 05003A   26059.44132153 -.00000268  00000+0  00000+0 0  9991
2 28526   6.1774  71.7688 0003242 265.6881 302.2084  1.00272048 52060
ASTRA 1KR               
1 29055U 06012A   26059.31850326  .00000101  00000+0  00000+0 0  9990
2 29055   0.1926  81.6685 0003607 236.9347 333.1822  1.00270120 44604
ASTRA 1L                
1 31306U 07016A   26059.44392154 -.00000202  00000+0  00000+0 0  9994
2 31306   1.0403  82.4528 0003252 265.7574 305.3964  1.00271527 43899
ASTRA 4A                
1 32299U 07057A   26059.37840123  .00000015  00000+0  00000+0 0  9998
2 32299   0.0608 286.9981 0002484  49.7650 322.4358  1.00272208 50557
ASTRA 1M                
1 33436U 08057A   26059.25808392  .00000102  00000+0  00000+0 0  9999
2 33436   0.0262  50.5719 0000253  17.1588 202.4168  1.00271685 44649
NSS-9                   
1 33749U 09008A   26059.47077543  .00000054  00000+0  00000+0 0  9999
2 33749   0.9802  83.7439 0002264 243.5527 183.5083  1.00271308 62438
SES-7 (PROTOSTAR 2)     
1 34941U 09027A   26059.47026832  .00000000  00000+0  00000+0 0  9991
2 34941   0.0206 124.5454 0001814 172.1520 139.1507  1.00270454 61532
NSS-12                  
1 36032U 09058A   26059.48692572  .00000054  00000+0  00000+0 0  9998
2 36032   0.0402 326.6211 0005117 358.7541  65.1909  1.00270985 59826
SES-1                   
1 36516U 10016A   26059.50090833 -.00000132  00000+0  00000+0 0  9994
2 36516   0.0602 286.5964 0002684  39.5819 271.4373  1.00272879 57944
ASTRA 3B                
1 36581U 10021A   26059.25808392  .00000120  00000+0  00000+0 0  9997
2 36581   1.1867  85.0017 0002993 274.2117 275.2649  1.00270195 57772
SES-3                   
1 37748U 11035A   26059.50326574 -.00000119  00000+0  00000+0 0  9993
2 37748   1.0454  84.3554 0003567 258.7326 253.3755  1.00270873 53509
ASTRA 1N                
1 37775U 11041A   26059.25808392  .00000102  00000+0  00000+0 0  9996
2 37775   0.0647  10.8058 0003872   2.3781 256.9673  1.00271667 43433
SES-2                   
1 37809U 11049A   26059.43152814 -.00000213  00000+0  00000+0 0  9997
2 37809   0.0256  74.7419 0002947 261.3135 250.5074  1.00270386 52879
QUETZSAT 1              
1 37826U 11054A   26059.43352147 -.00000259  00000+0  00000+0 0  9993
2 37826   0.0611 284.8621 0002679  62.7391 249.6928  1.00272051 48784
SES-4                   
1 38087U 12007A   26059.44444153 -.00000186  00000+0  00000+0 0  9991
2 38087   0.0349  64.2750 0002247 285.3108 306.6589  1.00271462 51130
SES-5                   
1 38652U 12036A   26059.37848790  .00000016  00000+0  00000+0 0  9999
2 38652   0.0607 307.0700 0001866  17.9436 334.3875  1.00269895 43366
ASTRA 2F                
1 38778U 12051A   26059.31175427  .00000132  00000+0  00000+0 0  9998
2 38778   0.0826 260.4204 0003000  11.5471  26.5446  1.00271819 40045
SES-6                   
1 39172U 13026A   26059.44071485 -.00000279  00000+0  00000+0 0  9996
2 39172   0.0531 300.3110 0002176  41.2432 294.8224  1.00270777 46634
O3B FM5                 
1 39188U 13031A   26059.29968845 -.00000028  00000+0  00000+0 0  9999
2 39188   0.0969  15.1928 0003349 315.4459  29.3353  5.00116399231590
O3B FM4                 
1 39189U 13031B   26059.21893934 -.00000027  00000+0  00000+0 0  9997
2 39189   0.0557 345.2165 0005056   2.9573  11.8070  5.00115174231598
O3B FM2                 
1 39190U 13031C   26059.28463133 -.00000028  00000+0  00000+0 0  9991
2 39190   0.0570 339.1822 0002827 357.9539  22.8440  5.00115943231660
O3B PFM                 
1 39191U 13031D   26059.29874383 -.00000028  00000+0  00000+0 0  9996
2 39191   0.0661   7.9604 0005141 348.0227   4.0054  5.00115940231229
ASTRA 2E                
1 39285U 13056A   26059.31175427  .00000133  00000+0  00000+0 0  9999
2 39285   0.0642  22.1171 0002209 308.7447 327.9631  1.00270070 45323
SES-8                   
1 39460U 13071A   26059.50385826 -.00000287  00000+0  00000+0 0  9999
2 39460   0.0464 276.5630 0001549  78.5507  79.5749  1.00271464 43348
ASTRA 5B                
1 39617U 14011B   26059.31080093  .00000119  00000+0  00000+0 0  9998
2 39617   0.0998 294.8720 0004345  24.2295 334.4044  1.00268565 43570
O3B FM3                 
1 40079U 14038A   26059.16547287 -.00000027  00000+0  00000+0 0  9996
2 40079   0.0531 353.4939 0000397  37.3589 329.1423  5.00115523207590
O3B FM7                 
1 40080U 14038B   26057.51243395 -.00000024  00000+0  00000+0 0  9995
2 40080   0.0590 349.0933 0004497 336.9388  33.9327  5.00115593212341
O3B FM6                 
1 40081U 14038C   26059.33845883 -.00000028  00000+0  00000+0 0  9992
2 40081   0.0550 351.2998 0002672 345.9055  22.7755  5.00115665212383
O3B FM8                 
1 40082U 14038D   26059.39177881 -.00000028  00000+0  00000+0 0  9995
2 40082   0.0559 350.6495 0002654 350.7897  18.5438  5.00115956212492
O3B FM10                
1 40348U 14083A   26059.01904843 -.00000027  00000+0  00000+0 0  9994
2 40348   0.0436 346.6614 0002682 351.1661  22.1536  5.00115172204439
O3B FM11                
1 40349U 14083B   26059.23166440 -.00000027  00000+0  00000+0 0  9992
2 40349   0.0564   0.5217 0003179 326.6154  32.8359  5.00115538204463
O3B FM12                
1 40350U 14083C   26059.45865405 -.00000028  00000+0  00000+0 0  9996
2 40350   0.0558 359.7508 0002648 334.7522  25.4765  5.00115894204474
O3B FM9                 
1 40351U 14083D   26059.08570179 -.00000027  00000+0  00000+0 0  9996
2 40351   0.0575   0.9170 0002744 336.6196  22.4442  5.00115839204613
ASTRA 2G                
1 40364U 14089A   26059.31175427  .00000000  00000+0  00000+0 0  9999
2 40364   0.0247 359.9377 0004017  21.9687 276.6567  1.00268747 40873
SES-9                   
1 41380U 16013A   26059.47026832 -.00000363  00000+0  00000+0 0  9992
2 41380   0.0345 286.6562 0001358 101.0565  48.1395  1.00271291 36349
SES-10                  
1 42432U 17017A   26059.43551481 -.00000290  00000+0  00000+0 0  9994
2 42432   0.0186  71.3814 0002511 265.6263 271.1093  1.00271073 32666
SES-15                  
1 42709U 17026A   26059.51133044  .00000042  00000+0  00000+0 0  9995
2 42709   0.0364 305.0696 0000806  22.6966 245.4349  1.00271055  6346
SES-11 (ECHOSTAR 105)   
1 42967U 17063A   26059.50229927 -.00000107  00000+0  00000+0 0  9990
2 42967   0.0268  66.2681 0002989 264.8803 263.0292  1.00271761 30635
SES-14                  
1 43175U 18012B   26059.43932818 -.00000296  00000+0  00000+0 0  9998
2 43175   0.0132  61.0547 0001015 257.0940 310.7447  1.00270267  5933
O3B FM15                
1 43231U 18024A   26059.35235262 -.00000028  00000+0  00000+0 0  9997
2 43231   0.0482   0.5393 0002708 334.1008  25.3393  5.00115657145583
O3B FM16                
1 43232U 18024B   26054.20757829 -.00000015  00000+0  00000+0 0  9991
2 43232   0.0439   1.6629 0002783 327.8513  30.4656  5.00115837145245
O3B FM14                
1 43233U 18024C   26059.24559054 -.00000027  00000+0  00000+0 0  9994
2 43233   0.0431   0.9922 0002847 338.7546  20.2346  5.00115598145498
O3B FM13                
1 43234U 18024D   26053.71450341 -.00000014  00000+0  00000+0 0  9996
2 43234   0.0534 327.5947 0005112 330.3943  61.9554  5.00115731145329
SES-12                  
1 43488U 18049A   26059.50385826  .00000000  00000+0  00000+0 0  9996
2 43488   0.0233 107.6132 0002330 191.8450 135.2597  1.00268829 28326
O3B FM20                
1 44112U 19020A   26053.67467347 -.00000014  00000+0  00000+0 0  9998
2 44112   0.0511 359.3407 0002857 322.3432  38.2920  5.00115459125847
O3B FM19                
1 44113U 19020B   26058.89895873 -.00000027  00000+0  00000+0 0  9991
2 44113   0.0602 347.5601 0004795 353.9797  18.4356  5.00116325125971
O3B FM17                
1 44114U 19020C   26059.37878653 -.00000028  00000+0  00000+0 0  9994
2 44114   0.0399 339.1438 0002697 354.8772  25.9581  5.00115392126081
O3B FM18                
1 44115U 19020D   26059.32507704 -.00000028  00000+0  00000+0 0  9996
2 44115   0.0517 359.9706 0002751 338.3904  21.6200  5.00115241126205
SES-17                  
1 49332U 21095A   26059.36418784 -.00000290  00000+0  00000+0 0  9991
2 49332   0.0222  62.3294 0001118 265.9287 253.9059  1.00269964 16765
SES-22                  
1 52933U 22071A   26059.51548764  .00000087  00000+0  00000+0 0  9999
2 52933   0.0176  92.5215 0001139 232.3132 240.0396  1.00272898  6436
SES-20                  
1 53960U 22123A   26059.50326618 -.00000118  00000+0  00000+0 0  9995
2 53960   0.0137 113.3708 0001203 309.3156 173.6779  1.00270490 12446
SES-21                  
1 53961U 22123B   26059.52683528  .00000052  00000+0  00000+0 0  9990
2 53961   0.0256  60.2974 0000988 282.1490 234.5455  1.00270114  6121
O3B MPOWER F1           
1 54755U 22174A   26058.53300325 -.00000026  00000+0  00000+0 0  9991
2 54755   0.0641 351.4493 0005158   3.4086 238.9684  5.00103025 59873
O3B MPOWER F2           
1 54756U 22174B   26048.35866194 -.00000015  00000+0  00000+0 0  9990
2 54756   0.0642 348.2682 0001560 220.5550 151.1634  5.00731386 59441
SES-18                  
1 55970U 23038A   26059.42832145 -.00000118  00000+0  00000+0 0  9992
2 55970   0.0502 277.6429 0002666  26.0576 265.6111  1.00270914 11017
SES-19                  
1 55971U 23038B   26059.42208142  .00000070  00000+0  00000+0 0  9993
2 55971   0.0611 283.5898 0001814  44.3141 207.3602  1.00270550 10990
O3B MPOWER F4           
1 56367U 23059A   26048.24074746 -.00000015  00000+0  00000+0 0  9995
2 56367   0.0593   7.9241 0006460 334.3658  17.6828  5.00119607 52601
O3B MPOWER F5           
1 58346U 23175A   26059.36803015 -.00000028  00000+0  00000+0 0  9991
2 58346   0.0395   1.7712 0004125 341.8271  16.3809  5.00115661 43987
ASTRA 1P (SES-24)       
1 60086U 24115A   26059.06989112  .00000102  00000+0  00000+0 0  9992
2 60086   0.0640 329.1123 0004780 352.6862 240.4304  1.00266791  6100
O3B MPOWER F7           
1 62362U 24244A   26056.53654882 -.00000021  00000+0  00000+0 0  9997
2 62362   0.0691   5.9352 0006156 329.7855  24.2447  5.00115127 20948
O3B MPOWER F8           
1 62363U 24244B   26059.30200772 -.00000028  00000+0  00000+0 0  9998
2 62363   0.0535 316.9883 0006676  14.4549  28.5128  5.00115722 15415
